GLOBALSTAR M063 [+]     
1 26081U 00008A   23331.78804189 -.00000042  00000+0  59607-3 0  9998
2 26081  51.9921 165.8672 0003643 319.9906 124.8838 11.86148353 90243
GLOBALSTAR M062 [-]     
1 26082U 00008B   23332.18317056 -.00000047  00000+0  36821-3 0  9994
2 26082  51.9860 323.1082 0007124 344.4496  96.1963 12.43422130426082
GLOBALSTAR M060 [-]     
1 26083U 00008C   23332.56111201 -.00000123  00000+0 -32216-3 0  9991
2 26083  52.0004 201.8448 0004568  59.7249 302.8432 12.17620388 83346
GLOBALSTAR M064 [-]     
1 26084U 00008D   23332.13938685 -.00000035  00000+0  68894-3 0  9990
2 26084  52.0033 270.4574 0002259  48.2367 311.8658 11.88512449 99678
GLOBALSTAR M065 [+]     
1 31571U 07020A   23332.52927854 -.00000055  00000+0  27380-3 0  9994
2 31571  51.9865 150.9129 0010737 130.3147 264.2597 12.61959247761866
GLOBALSTAR M069 [+]     
1 31573U 07020C   23332.58197038 -.00000095  00000+0  47424-4 0  9991
2 31573  51.9933 106.8380 0001155 119.5733 321.3491 12.62261392762998
GLOBALSTAR M072 [+]     
1 31574U 07020D   23331.94997604 -.00000042  00000+0  34727-3 0  9991
2 31574  52.0069 204.5239 0001529  77.6361  27.7823 12.62269122761181
GLOBALSTAR M071 [P]     
1 31576U 07020F   23332.60866852 -.00000104  00000+0  76781-6 0  9995
2 31576  52.0052 111.7661 0000883 104.4507 336.7584 12.62273262424189
